{
    "links": {
        "self": "http://www.neowsapp.com/rest/v1/neo/3795056?api_key=iIulBulltgU6a56xZRHN4H3l9WmuAYTsLGpBGhQ2"
    },
    "id": "3795056",
    "neo_reference_id": "3795056",
    "name": "(2017 YS4)",
    "designation": "2017 YS4",
    "nasa_jpl_url": "http://ssd.jpl.nasa.gov/sbdb.cgi?sstr=3795056",
    "absolute_magnitude_h": 23.0,
    "estimated_diameter": {
        "kilometers": {
            "estimated_diameter_min": 0.0667659413,
            "estimated_diameter_max": 0.1492931834
        },
        "meters": {
            "estimated_diameter_min": 66.7659413495,
            "estimated_diameter_max": 149.2931834393
        },
        "miles": {
            "estimated_diameter_min": 0.0414864197,
            "estimated_diameter_max": 0.0927664547
        },
        "feet": {
            "estimated_diameter_min": 219.0483710172,
            "estimated_diameter_max": 489.807047955
        }
    },
    "is_potentially_hazardous_asteroid": false,
    "close_approach_data": [
        {
            "close_approach_date": "2017-12-12",
            "close_approach_date_full": "2017-Dec-12 12:30",
            "epoch_date_close_approach": 1513081800000,
            "relative_velocity": {
                "kilometers_per_second": "6.8248307476",
                "kilometers_per_hour": "24569.3906914951",
                "miles_per_hour": "15266.4638993904"
            },
            "miss_distance": {
                "astronomical": "0.3261421068",
                "lunar": "126.8692795452",
                "kilometers": "48790164.494592516",
                "miles": "30316802.4081320808"
            },
            "orbiting_body": "Earth"
        }
    ],
    "orbital_data": {
        "orbit_id": "1",
        "orbit_determination_date": "2017-12-26 11:42:09",
        "first_observation_date": "2017-12-24",
        "last_observation_date": "2017-12-26",
        "data_arc_in_days": 2,
        "observations_used": 9,
        "orbit_uncertainty": "9",
        "minimum_orbit_intersection": ".282551",
        "jupiter_tisserand_invariant": "4.921",
        "epoch_osculation": "2458112.5",
        "eccentricity": ".05894109662895384",
        "semi_major_axis": "1.321748259573072",
        "inclination": "11.89662549422707",
        "ascending_node_longitude": "96.13544186667809",
        "orbital_period": "555.0365048568005",
        "perihelion_distance": "1.243842967686424",
        "perihelion_argument": "54.18286484782305",
        "aphelion_distance": "1.39965355145972",
        "perihelion_time": "2458203.383621112709",
        "mean_anomaly": "301.0523392348463",
        "mean_motion": ".648605986903294",
        "equinox": "J2000",
        "orbit_class": {
            "orbit_class_type": "AMO",
            "orbit_class_description": "Near-Earth asteroid orbits similar to that of 1221 Amor",
            "orbit_class_range": "1.017 AU < q (perihelion) < 1.3 AU"
        }
    },
    "is_sentry_object": false
}